start=new Date('2022-12-01T00:00:00.000Z').valueOf();
sats=[{"PERIOD":"91.525","REV_AT_EPOCH":"130","TIME_SYSTEM":"UTC","RA_OF_ASC_NODE":"258.1297","CENTER_NAME":"EARTH","MEAN_ANOMALY":"10.2539","OBJECT_NAME":"STARLINK-4800","OBJECT_ID":"2022-114AN","COUNTRY_CODE":"US","INCLINATION":"53.2154","CLASSIFICATION_TYPE":"U","REF_FRAME":"TEME","OBJECT_TYPE":"PAYLOAD","ELEMENT_SET_NO":"999","NORAD_CAT_ID":"53854","APOAPSIS":"351.908","MEAN_MOTION_DDOT":"0.0000000000000","SEMIMAJOR_AXIS":"6727.473","EPOCH":"2022-11-30T22:00:00.999936","TLE_LINE1":"1 53854U 22114AN  22334.91667824 -.00356624  00000-0 -26270-2 0  9999","GP_ID":"219218112","FILE":"3676429","RCS_SIZE":"LARGE","PERIAPSIS":"346.767","MEAN_MOTION":"15.73348254","SITE":"AFETR","ECCENTRICITY":"0.00038210","LAUNCH_DATE":"2022-09-19","DECAY_DATE":null,"EPHEMERIS_TYPE":"0","MEAN_ELEMENT_THEORY":"SGP4","TLE_LINE2":"2 53854  53.2154 258.1297 0003821   5.5172  10.2539 15.73348254  1301","MEAN_MOTION_DOT":"-0.00356624","ARG_OF_PERICENTER":"5.5172","BSTAR":"-0.00262700000000"},{"OBJECT_NAME":"STARLINK-4703","INCLINATION":"53.2176","OBJECT_ID":"2022-114AP","COUNTRY_CODE":"US","RA_OF_ASC_NODE":"259.4230","CENTER_NAME":"EARTH","TIME_SYSTEM":"UTC","PERIOD":"93.075","REV_AT_EPOCH":"130","MEAN_ANOMALY":"20.1975","MEAN_MOTION_DDOT":"0.0000000000000","SEMIMAJOR_AXIS":"6803.224","APOAPSIS":"425.897","EPOCH":"2022-11-30T22:00:00.999936","CLASSIFICATION_TYPE":"U","NORAD_CAT_ID":"53855","ELEMENT_SET_NO":"999","REF_FRAME":"TEME","OBJECT_TYPE":"PAYLOAD","PERIAPSIS":"424.280","MEAN_MOTION":"15.47143684","GP_ID":"219218644","TLE_LINE1":"1 53855U 22114AP  22334.91667824 -.01145611  00000-0 -24291-1 0  9993","RCS_SIZE":"LARGE","FILE":"3676429","MEAN_ELEMENT_THEORY":"SGP4","EPHEMERIS_TYPE":"0","MEAN_MOTION_DOT":"-0.01145611","ARG_OF_PERICENTER":"74.4208","BSTAR":"-0.02429100000000","TLE_LINE2":"2 53855  53.2176 259.4230 0001189  74.4208  20.1975 15.47143684  1302","ECCENTRICITY":"0.00011890","SITE":"AFETR","DECAY_DATE":null,"LAUNCH_DATE":"2022-09-19"},{"SITE":"AFETR","ECCENTRICITY":"0.00038040","LAUNCH_DATE":"2022-09-19","DECAY_DATE":null,"EPHEMERIS_TYPE":"0","MEAN_ELEMENT_THEORY":"SGP4","TLE_LINE2":"2 53856  53.2160 258.1226 0003804   6.9163  11.7880 15.73293545  1305","MEAN_MOTION_DOT":"-0.00193873","BSTAR":"-0.00140250000000","ARG_OF_PERICENTER":"6.9163","GP_ID":"219218806","TLE_LINE1":"1 53856U 22114AQ  22334.91667824 -.00193873  00000-0 -14025-2 0  9991","FILE":"3676429","RCS_SIZE":"LARGE","PERIAPSIS":"346.934","MEAN_MOTION":"15.73293545","CLASSIFICATION_TYPE":"U","OBJECT_TYPE":"PAYLOAD","REF_FRAME":"TEME","ELEMENT_SET_NO":"999","NORAD_CAT_ID":"53856","APOAPSIS":"352.053","MEAN_MOTION_DDOT":"0.0000000000000","SEMIMAJOR_AXIS":"6727.628","EPOCH":"2022-11-30T22:00:00.999936","CENTER_NAME":"EARTH","RA_OF_ASC_NODE":"258.1226","TIME_SYSTEM":"UTC","REV_AT_EPOCH":"130","PERIOD":"91.528","MEAN_ANOMALY":"11.7880","OBJECT_NAME":"STARLINK-4795","INCLINATION":"53.2160","COUNTRY_CODE":"US","OBJECT_ID":"2022-114AQ"},{"ELEMENT_SET_NO":"999","NORAD_CAT_ID":"53857","REF_FRAME":"TEME","OBJECT_TYPE":"PAYLOAD","CLASSIFICATION_TYPE":"U","EPOCH":"2022-11-30T22:00:00.999936","SEMIMAJOR_AXIS":"6801.465","MEAN_MOTION_DDOT":"0.0000000000000","APOAPSIS":"424.124","MEAN_ANOMALY":"15.7118","RA_OF_ASC_NODE":"259.4112","TIME_SYSTEM":"UTC","CENTER_NAME":"EARTH","PERIOD":"93.039","REV_AT_EPOCH":"130","INCLINATION":"53.2176","OBJECT_ID":"2022-114AR","COUNTRY_CODE":"US","OBJECT_NAME":"STARLINK-4809","DECAY_DATE":null,"LAUNCH_DATE":"2022-09-19","ECCENTRICITY":"0.00011670","SITE":"AFETR","MEAN_MOTION_DOT":"-0.01145632","BSTAR":"-0.02378700000000","ARG_OF_PERICENTER":"84.7541","TLE_LINE2":"2 53857  53.2176 259.4112 0001167  84.7541  15.7118 15.47743777  1301","MEAN_ELEMENT_THEORY":"SGP4","EPHEMERIS_TYPE":"0","RCS_SIZE":"LARGE","FILE":"3676429","TLE_LINE1":"1 53857U 22114AR  22334.91667824 -.01145632  00000-0 -23787-1 0  9997","GP_ID":"219217939","MEAN_MOTION":"15.47743777","PERIAPSIS":"422.536"},{"TLE_LINE1":"1 53858U 22114AS  22334.91667824 -.00358274  00000-0 -26377-2 0  9994","GP_ID":"219218471","FILE":"3676429","RCS_SIZE":"LARGE","PERIAPSIS":"346.698","MEAN_MOTION":"15.73365436","SITE":"AFETR","ECCENTRICITY":"0.00038510","LAUNCH_DATE":"2022-09-19","DECAY_DATE":null,"EPHEMERIS_TYPE":"0","MEAN_ELEMENT_THEORY":"SGP4","TLE_LINE2":"2 53858  53.2161 258.1274 0003851   3.0289  13.3099 15.73365436  1309","MEAN_MOTION_DOT":"-0.00358274","BSTAR":"-0.00263770000000","ARG_OF_PERICENTER":"3.0289","RA_OF_ASC_NODE":"258.1274","CENTER_NAME":"EARTH","TIME_SYSTEM":"UTC","REV_AT_EPOCH":"130","PERIOD":"91.524","MEAN_ANOMALY":"13.3099","OBJECT_NAME":"STARLINK-4798","INCLINATION":"53.2161","COUNTRY_CODE":"US","OBJECT_ID":"2022-114AS","CLASSIFICATION_TYPE":"U","REF_FRAME":"TEME","OBJECT_TYPE":"PAYLOAD","NORAD_CAT_ID":"53858","ELEMENT_SET_NO":"999","APOAPSIS":"351.879","MEAN_MOTION_DDOT":"0.0000000000000","SEMIMAJOR_AXIS":"6727.424","EPOCH":"2022-11-30T22:00:00.999936"},{"TLE_LINE1":"1 53859U 22114AT  22334.91667824 -.01139920  00000-0 -11058-1 0  9990","GP_ID":"219218980","FILE":"3676429","RCS_SIZE":"LARGE","PERIAPSIS":"363.469","MEAN_MOTION":"15.68182359","ECCENTRICITY":"0.00009410","SITE":"AFETR","DECAY_DATE":null,"LAUNCH_DATE":"2022-09-19","MEAN_ELEMENT_THEORY":"SGP4","EPHEMERIS_TYPE":"0","BSTAR":"-0.01105800000000","MEAN_MOTION_DOT":"-0.01139920","ARG_OF_PERICENTER":"91.6285","TLE_LINE2":"2 53859  53.2177 258.1671 0000941  91.6285 264.7067 15.68182359  1306","REV_AT_EPOCH":"130","PERIOD":"91.826","CENTER_NAME":"EARTH","RA_OF_ASC_NODE":"258.1671","TIME_SYSTEM":"UTC","MEAN_ANOMALY":"264.7067","OBJECT_NAME":"STARLINK-4790","COUNTRY_CODE":"US","OBJECT_ID":"2022-114AT","INCLINATION":"53.2177","CLASSIFICATION_TYPE":"U","ELEMENT_SET_NO":"999","NORAD_CAT_ID":"53859","REF_FRAME":"TEME","OBJECT_TYPE":"PAYLOAD","SEMIMAJOR_AXIS":"6742.239","MEAN_MOTION_DDOT":"0.0000000000000","APOAPSIS":"364.738","EPOCH":"2022-11-30T22:00:00.999936"},{"CENTER_NAME":"EARTH","RA_OF_ASC_NODE":"258.1241","TIME_SYSTEM":"UTC","REV_AT_EPOCH":"130","PERIOD":"91.527","MEAN_ANOMALY":"16.0951","OBJECT_NAME":"STARLINK-4799","INCLINATION":"53.2160","COUNTRY_CODE":"US","OBJECT_ID":"2022-114AU","CLASSIFICATION_TYPE":"U","REF_FRAME":"TEME","OBJECT_TYPE":"PAYLOAD","NORAD_CAT_ID":"53860","ELEMENT_SET_NO":"999","APOAPSIS":"351.995","MEAN_MOTION_DDOT":"0.0000000000000","SEMIMAJOR_AXIS":"6727.568","EPOCH":"2022-11-30T22:00:00.999936","TLE_LINE1":"1 53860U 22114AU  22334.91667824 -.00202842  00000-0 -14678-2 0  9997","GP_ID":"219219142","RCS_SIZE":"LARGE","FILE":"3676429","PERIAPSIS":"346.872","MEAN_MOTION":"15.73314618","SITE":"AFETR","ECCENTRICITY":"0.00038080","LAUNCH_DATE":"2022-09-19","DECAY_DATE":null,"EPHEMERIS_TYPE":"0","MEAN_ELEMENT_THEORY":"SGP4","TLE_LINE2":"2 53860  53.2160 258.1241 0003808   1.9840  16.0951 15.73314618  1300","ARG_OF_PERICENTER":"1.9840","MEAN_MOTION_DOT":"-0.00202842","BSTAR":"-0.00146780000000"},{"OBJECT_TYPE":"PAYLOAD","REF_FRAME":"TEME","ELEMENT_SET_NO":"999","NORAD_CAT_ID":"53861","CLASSIFICATION_TYPE":"U","EPOCH":"2022-11-30T22:00:00.999936","APOAPSIS":"351.914","SEMIMAJOR_AXIS":"6727.486","MEAN_MOTION_DDOT":"0.0000000000000","MEAN_ANOMALY":"17.0972","PERIOD":"91.525","REV_AT_EPOCH":"130","RA_OF_ASC_NODE":"258.1255","TIME_SYSTEM":"UTC","CENTER_NAME":"EARTH","OBJECT_ID":"2022-114AV","COUNTRY_CODE":"US","INCLINATION":"53.2156","OBJECT_NAME":"STARLINK-4781","LAUNCH_DATE":"2022-09-19","DECAY_DATE":null,"SITE":"AFETR","ECCENTRICITY":"0.00038110","TLE_LINE2":"2 53861  53.2156 258.1255 0003811 359.8636  17.0972 15.73343668  1304","MEAN_MOTION_DOT":"-0.00339466","ARG_OF_PERICENTER":"359.8636","BSTAR":"-0.00249590000000","EPHEMERIS_TYPE":"0","MEAN_ELEMENT_THEORY":"SGP4","RCS_SIZE":"LARGE","FILE":"3676429","GP_ID":"219218299","TLE_LINE1":"1 53861U 22114AV  22334.91667824 -.00339466  00000-0 -24959-2 0  9994","MEAN_MOTION":"15.73343668","PERIAPSIS":"346.787"},{"DECAY_DATE":null,"LAUNCH_DATE":"2022-09-19","ECCENTRICITY":"0.00037680","SITE":"AFETR","MEAN_MOTION_DOT":"-0.00314636","BSTAR":"-0.00230650000000","ARG_OF_PERICENTER":"2.5636","TLE_LINE2":"2 53862  53.2161 258.1219 0003768   2.5636  16.7552 15.73342165  1305","MEAN_ELEMENT_THEORY":"SGP4","EPHEMERIS_TYPE":"0","FILE":"3676429","RCS_SIZE":"LARGE","TLE_LINE1":"1 53862U 22114AW  22334.91667824 -.00314636  00000-0 -23065-2 0  9994","GP_ID":"219218113","MEAN_MOTION":"15.73342165","PERIAPSIS":"346.820","ELEMENT_SET_NO":"999","NORAD_CAT_ID":"53862","OBJECT_TYPE":"PAYLOAD","REF_FRAME":"TEME","CLASSIFICATION_TYPE":"U","EPOCH":"2022-11-30T22:00:00.999936","SEMIMAJOR_AXIS":"6727.490","MEAN_MOTION_DDOT":"0.0000000000000","APOAPSIS":"351.890","MEAN_ANOMALY":"16.7552","REV_AT_EPOCH":"130","PERIOD":"91.525","CENTER_NAME":"EARTH","RA_OF_ASC_NODE":"258.1219","TIME_SYSTEM":"UTC","OBJECT_ID":"2022-114AW","COUNTRY_CODE":"US","INCLINATION":"53.2161","OBJECT_NAME":"STARLINK-4792"},{"MEAN_MOTION":"15.73380066","PERIAPSIS":"346.677","FILE":"3676429","RCS_SIZE":"LARGE","TLE_LINE1":"1 53863U 22114AX  22334.91667824 -.00389453  00000-0 -28763-2 0  9994","GP_ID":"219218645","TLE_LINE2":"2 53863  53.2160 258.1242 0003820   0.8986  16.6380 15.73380066  1309","BSTAR":"-0.00287630000000","MEAN_MOTION_DOT":"-0.00389453","ARG_OF_PERICENTER":"0.8986","EPHEMERIS_TYPE":"0","MEAN_ELEMENT_THEORY":"SGP4","LAUNCH_DATE":"2022-09-19","DECAY_DATE":null,"SITE":"AFETR","ECCENTRICITY":"0.00038200","OBJECT_ID":"2022-114AX","COUNTRY_CODE":"US","INCLINATION":"53.2160","OBJECT_NAME":"STARLINK-4788","MEAN_ANOMALY":"16.6380","PERIOD":"91.523","REV_AT_EPOCH":"130","CENTER_NAME":"EARTH","RA_OF_ASC_NODE":"258.1242","TIME_SYSTEM":"UTC","EPOCH":"2022-11-30T22:00:00.999936","APOAPSIS":"351.817","MEAN_MOTION_DDOT":"0.0000000000000","SEMIMAJOR_AXIS":"6727.382","OBJECT_TYPE":"PAYLOAD","REF_FRAME":"TEME","ELEMENT_SET_NO":"999","NORAD_CAT_ID":"53863","CLASSIFICATION_TYPE":"U"}];
